0 COSMOS 654
1 07297U 74032A   13282.70541926 -.00000058  00000-0  28535-4 0  8092
2 07297 064.9505 344.4647 0061051 356.5587 148.1782 13.79408331986047
0 COSMOS 654
1 07297U 74032A   13283.54628722  .00000015  00000-0  14032-4 0  8117
2 07297 064.9513 342.3052 0060611 356.2439 003.8612 13.79408197986169
0 COSMOS 654
1 07297U 74032A   13283.71877219 -.00000049  00000-0  37487-4 0  8109
2 07297 064.9504 341.8557 0061153 356.2376 140.3548 13.79408279986183
0 COSMOS 654
1 07297U 74032A   13285.74939006 -.00000042  00000-0  43743-4 0  8124
2 07297 064.9499 336.6279 0061341 355.6080 144.1201 13.79408350986462
0 COSMOS 654
1 07297U 74032A   13287.10277020 -.00000032  00000-0  53934-4 0  8130
2 07297 064.9496 333.1435 0061483 355.1746 024.8314 13.79408597986659
0 COSMOS 654
1 07297U 74032A   13288.19793825 -.00000059  00000-0  27723-4 0  8143
2 07297 064.9495 330.3238 0061566 354.8602 063.2577 13.79408752986805
0 COSMOS 654
1 07297U 74032A   13289.52598299 -.00000066  00000-0  20932-4 0  8153
2 07297 064.9493 326.9045 0061686 354.4503 178.1430 13.79408890986985
0 COSMOS 654
1 07297U 74032A   13290.50623443  .00000050  00000-0  47595-4 0  8160
2 07297 064.9515 324.3881 0060644 354.3871 005.6968 13.79409197987128
0 COSMOS 654
1 07297U 74032A   13290.53667097 -.00000070  00000-0  17411-4 0  8163
2 07297 064.9493 324.3022 0061781 354.1407 157.0769 13.79408913987122
0 COSMOS 654
1 07297U 74032A   13291.62261936 -.00000083  00000-0  51433-5 0  8174
2 07297 064.9492 321.5061 0061883 353.8090 149.7417 13.79409044987270
0 COSMOS 654
1 07297U 74032A   13292.63633138 -.00000068  00000-0  19478-4 0  8189
2 07297 064.9493 318.8960 0061991 353.4915 143.7006 13.79409054987415
0 COSMOS 654
1 07297U 74032A   13293.65139756 -.00000062  00000-0  24454-4 0  8194
2 07297 064.9493 316.2826 0062097 353.1776 144.3802 13.79409008987553
0 COSMOS 654
1 07297U 74032A   13295.15815529 -.00000044  00000-0  41897-4 0  8202
2 07297 064.9492 312.4032 0062284 352.7073 066.7365 13.79409140987763
0 COSMOS 654
1 07297U 74032A   13296.17539453 -.00000041  00000-0  45303-4 0  8218
2 07297 064.9491 309.7841 0062358 352.3983 078.2022 13.79409066987908
